QIANFAN-35              
1 61568U 24185S   26061.78828885  .00000952  00000+0  37737-3 0  9990
2 61568  88.9742  67.4651 0007774  39.6457 320.5305 14.28112139 81609
QIANFAN-36              
1 61569U 24185T   26061.75391856  .00000161  00000+0  21436-3 0  9992
2 61569  88.9715  72.6946 0006755 153.5046 206.6454 13.55613050 78762
QIANFAN-37              
1 62238U 24232B   26061.83343684  .00000080  00000+0  10523-3 0  9999
2 62238  89.0045  33.2379 0001625  96.4008 263.7328 13.51004896109982
QIANFAN-38              
1 62239U 24232C   26061.85807464  .00000065  00000+0  81661-4 0  9998
2 62239  89.0052  33.1567 0013670 331.7309  28.3099 13.51003478110045
QIANFAN-39              
1 62240U 24232D   26061.80246038  .00000421  00000+0  17205-3 0  9997
2 62240  89.0051  28.1484 0016194 167.9977 192.1606 14.25433534112792
QIANFAN-40              
1 62241U 24232E   26061.81692561  .00000065  00000+0  82588-4 0  9996
2 62241  89.0080  32.7678 0013007 340.8589  19.2071 13.51002662110405
QIANFAN-41              
1 62242U 24232F   26061.82519986  .00000087  00000+0  11594-3 0  9999
2 62242  89.0050  33.1101 0012962 328.0034  32.0329 13.51004366110065
QIANFAN-42              
1 62243U 24232G   26061.85141436  .00000400  00000+0  16636-3 0  9995
2 62243  89.0049  28.2020 0014816 173.3338 186.8054 14.24527607112779
QIANFAN-43              
1 62244U 24232H   26061.82104411  .00000053  00000+0  63231-4 0  9993
2 62244  89.0055  33.1795 0014654 332.7310  27.3071 13.51004336 78678
QIANFAN-44              
1 62245U 24232J   26061.80870465  .00000063  00000+0  79326-4 0  9994
2 62245  89.0054  32.9901 0012788 330.6589  29.3843 13.51002309110141
QIANFAN-45              
1 62246U 24232K   26061.84987429  .00000059  00000+0  72985-4 0  9997
2 62246  89.0057  33.1353 0013424 329.7151  30.3223 13.51000012110076
QIANFAN-46              
1 62247U 24232L   26061.80046287  .00000067  00000+0  85010-4 0  9994
2 62247  89.0053  33.2060 0013665 335.6827  24.3678 13.51002882110021
QIANFAN-47              
1 62248U 24232M   26061.80457446  .00000072  00000+0  93533-4 0  9993
2 62248  89.0049  33.1353 0014067 334.5220  25.5236 13.51002838110050
QIANFAN-48              
1 62249U 24232N   26061.84161498  .00000069  00000+0  88334-4 0  9996
2 62249  89.0052  33.1366 0016395 336.0554  23.9833 13.51003047110061
QIANFAN-49              
1 62250U 24232P   26061.82927243  .00000068  00000+0  86899-4 0  9997
2 62250  89.0051  33.1498 0013307 331.8657  28.1774 13.51002103 78656
QIANFAN-50              
1 62251U 24232Q   26061.85395005  .00000062  00000+0  77115-4 0  9991
2 62251  89.0057  33.1597 0014996 332.3263  27.7089 13.51003087 78686
QIANFAN-51              
1 62252U 24232R   26061.83752495  .00000074  00000+0  96549-4 0  9995
2 62252  89.0051  33.1504 0012639 337.6619  22.3980 13.51003903 78671
