[{"OBJECT_NAME":"QIANFAN-35","OBJECT_ID":"2024-185S","EPOCH":"2026-03-02T18:55:08.156640","MEAN_MOTION":14.28112139,"ECCENTRICITY":0.0007774,"INCLINATION":88.9742,"RA_OF_ASC_NODE":67.4651,"ARG_OF_PERICENTER":39.6457,"MEAN_ANOMALY":320.5305,"EPHEMERIS_TYPE":0,"CLASSIFICATION_TYPE":"U","NORAD_CAT_ID":61568,"ELEMENT_SET_NO":999,"REV_AT_EPOCH":8160,"BSTAR":0.00037737,"MEAN_MOTION_DOT":9.52e-6,"MEAN_MOTION_DDOT":0},{"OBJECT_NAME":"QIANFAN-36","OBJECT_ID":"2024-185T","EPOCH":"2026-03-02T18:05:38.563584","MEAN_MOTION":13.5561305,"ECCENTRICITY":0.0006755,"INCLINATION":88.9715,"RA_OF_ASC_NODE":72.6946,"ARG_OF_PERICENTER":153.5046,"MEAN_ANOMALY":206.6454,"EPHEMERIS_TYPE":0,"CLASSIFICATION_TYPE":"U","NORAD_CAT_ID":61569,"ELEMENT_SET_NO":999,"REV_AT_EPOCH":7876,"BSTAR":0.00021436,"MEAN_MOTION_DOT":1.61e-6,"MEAN_MOTION_DDOT":0},{"OBJECT_NAME":"QIANFAN-37","OBJECT_ID":"2024-232B","EPOCH":"2026-03-02T20:00:08.942976","MEAN_MOTION":13.51004896,"ECCENTRICITY":0.0001625,"INCLINATION":89.0045,"RA_OF_ASC_NODE":33.2379,"ARG_OF_PERICENTER":96.4008,"MEAN_ANOMALY":263.7328,"EPHEMERIS_TYPE":0,"CLASSIFICATION_TYPE":"U","NORAD_CAT_ID":62238,"ELEMENT_SET_NO":999,"REV_AT_EPOCH":10998,"BSTAR":0.00010523,"MEAN_MOTION_DOT":8.0e-7,"MEAN_MOTION_DDOT":0},{"OBJECT_NAME":"QIANFAN-38","OBJECT_ID":"2024-232C","EPOCH":"2026-03-02T20:35:37.648896","MEAN_MOTION":13.51003478,"ECCENTRICITY":0.001367,"INCLINATION":89.0052,"RA_OF_ASC_NODE":33.1567,"ARG_OF_PERICENTER":331.7309,"MEAN_ANOMALY":28.3099,"EPHEMERIS_TYPE":0,"CLASSIFICATION_TYPE":"U","NORAD_CAT_ID":62239,"ELEMENT_SET_NO":999,"REV_AT_EPOCH":11004,"BSTAR":8.1661e-5,"MEAN_MOTION_DOT":6.5e-7,"MEAN_MOTION_DDOT":0},{"OBJECT_NAME":"QIANFAN-39","OBJECT_ID":"2024-232D","EPOCH":"2026-03-02T19:15:32.576832","MEAN_MOTION":14.25433534,"ECCENTRICITY":0.0016194,"INCLINATION":89.0051,"RA_OF_ASC_NODE":28.1484,"ARG_OF_PERICENTER":167.9977,"MEAN_ANOMALY":192.1606,"EPHEMERIS_TYPE":0,"CLASSIFICATION_TYPE":"U","NORAD_CAT_ID":62240,"ELEMENT_SET_NO":999,"REV_AT_EPOCH":11279,"BSTAR":0.00017205,"MEAN_MOTION_DOT":4.21e-6,"MEAN_MOTION_DDOT":0},{"OBJECT_NAME":"QIANFAN-40","OBJECT_ID":"2024-232E","EPOCH":"2026-03-02T19:36:22.372704","MEAN_MOTION":13.51002662,"ECCENTRICITY":0.0013007,"INCLINATION":89.008,"RA_OF_ASC_NODE":32.7678,"ARG_OF_PERICENTER":340.8589,"MEAN_ANOMALY":19.2071,"EPHEMERIS_TYPE":0,"CLASSIFICATION_TYPE":"U","NORAD_CAT_ID":62241,"ELEMENT_SET_NO":999,"REV_AT_EPOCH":11040,"BSTAR":8.2588e-5,"MEAN_MOTION_DOT":6.5e-7,"MEAN_MOTION_DDOT":0},{"OBJECT_NAME":"QIANFAN-41","OBJECT_ID":"2024-232F","EPOCH":"2026-03-02T19:48:17.267904","MEAN_MOTION":13.51004366,"ECCENTRICITY":0.0012962,"INCLINATION":89.005,"RA_OF_ASC_NODE":33.1101,"ARG_OF_PERICENTER":328.0034,"MEAN_ANOMALY":32.0329,"EPHEMERIS_TYPE":0,"CLASSIFICATION_TYPE":"U","NORAD_CAT_ID":62242,"ELEMENT_SET_NO":999,"REV_AT_EPOCH":11006,"BSTAR":0.00011594,"MEAN_MOTION_DOT":8.7e-7,"MEAN_MOTION_DDOT":0},{"OBJECT_NAME":"QIANFAN-42","OBJECT_ID":"2024-232G","EPOCH":"2026-03-02T20:26:02.200704","MEAN_MOTION":14.24527607,"ECCENTRICITY":0.0014816,"INCLINATION":89.0049,"RA_OF_ASC_NODE":28.202,"ARG_OF_PERICENTER":173.3338,"MEAN_ANOMALY":186.8054,"EPHEMERIS_TYPE":0,"CLASSIFICATION_TYPE":"U","NORAD_CAT_ID":62243,"ELEMENT_SET_NO":999,"REV_AT_EPOCH":11277,"BSTAR":0.00016636,"MEAN_MOTION_DOT":4.0e-6,"MEAN_MOTION_DDOT":0},{"OBJECT_NAME":"QIANFAN-43","OBJECT_ID":"2024-232H","EPOCH":"2026-03-02T19:42:18.211104","MEAN_MOTION":13.51004336,"ECCENTRICITY":0.0014654,"INCLINATION":89.0055,"RA_OF_ASC_NODE":33.1795,"ARG_OF_PERICENTER":332.731,"MEAN_ANOMALY":27.3071,"EPHEMERIS_TYPE":0,"CLASSIFICATION_TYPE":"U","NORAD_CAT_ID":62244,"ELEMENT_SET_NO":999,"REV_AT_EPOCH":7867,"BSTAR":6.3231e-5,"MEAN_MOTION_DOT":5.3e-7,"MEAN_MOTION_DDOT":0},{"OBJECT_NAME":"QIANFAN-44","OBJECT_ID":"2024-232J","EPOCH":"2026-03-02T19:24:32.081760","MEAN_MOTION":13.51002309,"ECCENTRICITY":0.0012788,"INCLINATION":89.0054,"RA_OF_ASC_NODE":32.9901,"ARG_OF_PERICENTER":330.6589,"MEAN_ANOMALY":29.3843,"EPHEMERIS_TYPE":0,"CLASSIFICATION_TYPE":"U","NORAD_CAT_ID":62245,"ELEMENT_SET_NO":999,"REV_AT_EPOCH":11014,"BSTAR":7.9326e-5,"MEAN_MOTION_DOT":6.3e-7,"MEAN_MOTION_DDOT":0},{"OBJECT_NAME":"QIANFAN-45","OBJECT_ID":"2024-232K","EPOCH":"2026-03-02T20:23:49.138656","MEAN_MOTION":13.51000012,"ECCENTRICITY":0.0013424,"INCLINATION":89.0057,"RA_OF_ASC_NODE":33.1353,"ARG_OF_PERICENTER":329.7151,"MEAN_ANOMALY":30.3223,"EPHEMERIS_TYPE":0,"CLASSIFICATION_TYPE":"U","NORAD_CAT_ID":62246,"ELEMENT_SET_NO":999,"REV_AT_EPOCH":11007,"BSTAR":7.2985e-5,"MEAN_MOTION_DOT":5.9e-7,"MEAN_MOTION_DDOT":0},{"OBJECT_NAME":"QIANFAN-46","OBJECT_ID":"2024-232L","EPOCH":"2026-03-02T19:12:39.991968","MEAN_MOTION":13.51002882,"ECCENTRICITY":0.0013665,"INCLINATION":89.0053,"RA_OF_ASC_NODE":33.206,"ARG_OF_PERICENTER":335.6827,"MEAN_ANOMALY":24.3678,"EPHEMERIS_TYPE":0,"CLASSIFICATION_TYPE":"U","NORAD_CAT_ID":62247,"ELEMENT_SET_NO":999,"REV_AT_EPOCH":11002,"BSTAR":8.501e-5,"MEAN_MOTION_DOT":6.7e-7,"MEAN_MOTION_DDOT":0},{"OBJECT_NAME":"QIANFAN-47","OBJECT_ID":"2024-232M","EPOCH":"2026-03-02T19:18:35.233344","MEAN_MOTION":13.51002838,"ECCENTRICITY":0.0014067,"INCLINATION":89.0049,"RA_OF_ASC_NODE":33.1353,"ARG_OF_PERICENTER":334.522,"MEAN_ANOMALY":25.5236,"EPHEMERIS_TYPE":0,"CLASSIFICATION_TYPE":"U","NORAD_CAT_ID":62248,"ELEMENT_SET_NO":999,"REV_AT_EPOCH":11005,"BSTAR":9.3533e-5,"MEAN_MOTION_DOT":7.2e-7,"MEAN_MOTION_DDOT":0},{"OBJECT_NAME":"QIANFAN-48","OBJECT_ID":"2024-232N","EPOCH":"2026-03-02T20:11:55.534272","MEAN_MOTION":13.51003047,"ECCENTRICITY":0.0016395,"INCLINATION":89.0052,"RA_OF_ASC_NODE":33.1366,"ARG_OF_PERICENTER":336.0554,"MEAN_ANOMALY":23.9833,"EPHEMERIS_TYPE":0,"CLASSIFICATION_TYPE":"U","NORAD_CAT_ID":62249,"ELEMENT_SET_NO":999,"REV_AT_EPOCH":11006,"BSTAR":8.8334e-5,"MEAN_MOTION_DOT":6.9e-7,"MEAN_MOTION_DDOT":0},{"OBJECT_NAME":"QIANFAN-49","OBJECT_ID":"2024-232P","EPOCH":"2026-03-02T19:54:09.137952","MEAN_MOTION":13.51002103,"ECCENTRICITY":0.0013307,"INCLINATION":89.0051,"RA_OF_ASC_NODE":33.1498,"ARG_OF_PERICENTER":331.8657,"MEAN_ANOMALY":28.1774,"EPHEMERIS_TYPE":0,"CLASSIFICATION_TYPE":"U","NORAD_CAT_ID":62250,"ELEMENT_SET_NO":999,"REV_AT_EPOCH":7865,"BSTAR":8.6899e-5,"MEAN_MOTION_DOT":6.8e-7,"MEAN_MOTION_DDOT":0},{"OBJECT_NAME":"QIANFAN-50","OBJECT_ID":"2024-232Q","EPOCH":"2026-03-02T20:29:41.284320","MEAN_MOTION":13.51003087,"ECCENTRICITY":0.0014996,"INCLINATION":89.0057,"RA_OF_ASC_NODE":33.1597,"ARG_OF_PERICENTER":332.3263,"MEAN_ANOMALY":27.7089,"EPHEMERIS_TYPE":0,"CLASSIFICATION_TYPE":"U","NORAD_CAT_ID":62251,"ELEMENT_SET_NO":999,"REV_AT_EPOCH":7868,"BSTAR":7.7115e-5,"MEAN_MOTION_DOT":6.2e-7,"MEAN_MOTION_DDOT":0},{"OBJECT_NAME":"QIANFAN-51","OBJECT_ID":"2024-232R","EPOCH":"2026-03-02T20:06:02.155680","MEAN_MOTION":13.51003903,"ECCENTRICITY":0.0012639,"INCLINATION":89.0051,"RA_OF_ASC_NODE":33.1504,"ARG_OF_PERICENTER":337.6619,"MEAN_ANOMALY":22.398,"EPHEMERIS_TYPE":0,"CLASSIFICATION_TYPE":"U","NORAD_CAT_ID":62252,"ELEMENT_SET_NO":999,"REV_AT_EPOCH":7867,"BSTAR":9.6549e-5,"MEAN_MOTION_DOT":7.4e-7,"MEAN_MOTION_DDOT":0}]
